LEMUR-1                 
1 40044U 14033AL  26116.95358873  .00002177  00000+0  25663-3 0  9998
2 40044  97.7810 267.9242 0047268 245.4992 114.1290 14.85016507637865
LEMUR-2-GREENBERG       
1 42837U 17042N   26116.76329446  .00020918  00000+0  72759-3 0  9997
2 42837  97.3809 297.6947 0009405 179.0599 181.0660 15.29694725480525
LEMUR-2-ANDIS           
1 42838U 17042P   26116.77196362  .00028382  00000+0  89689-3 0  9991
2 42838  97.3678 297.7257 0009416 182.3468 177.7732 15.32730788480570
LEMUR-2-MONSON          
1 42839U 17042Q   26116.46684454  .00016923  00000+0  64897-3 0  9994
2 42839  97.4068 297.4453 0007345 167.1114 193.0314 15.26543343480274
LEMUR-2-FURIAUS         
1 42840U 17042R   26116.45703215  .00026922  00000+0  97165-3 0  9996
2 42840  97.3763 295.4658 0006872 238.5591 121.4977 15.28454520480302
LEMUR-2-PETERG          
1 42841U 17042S   26116.78865279  .00023355  00000+0  76094-3 0  9997
2 42841  97.3997 301.8230 0004805 151.6513 208.4991 15.31822432480568
LEMUR-2-DEMBITZ         
1 42842U 17042T   26116.48095364  .00018600  00000+0  66838-3 0  9997
2 42842  97.3825 298.4653 0006928 189.8765 170.2340 15.28673726480446
LEMUR-2-ZACHARY         
1 42845U 17042W   26116.80131908  .00050270  00000+0  10267-2 0  9994
2 42845  97.3643 307.5069 0004141 186.4814 173.6383 15.46006597481253
LEMUR-2-KADI            
1 43184U 18014E   26116.72931554  .00231535  00000+0  14107-2 0  9999
2 43184  97.4564  44.5917 0006882  96.1671 264.0379 15.76751046452926
LEMUR-2-AMANDA-SVANTE   
1 48269U 21034B   26116.71714817  .00036494  00000+0  12057-2 0  9993
2 48269  97.5782 193.7685 0003966  97.1781 262.9911 15.31284595273178
LEMUR-2-SPECIAL-K       
1 48273U 21034F   26116.83571360  .00095888  00000+0  15220-2 0  9992
2 48273  97.5660 200.4916 0002276 162.5711 197.5620 15.53021069273690
LEMUR-2-EMBRIONOVIS     
1 56970U 23084AQ  26116.83064533  .00016001  00000+0  45486-3 0  9999
2 56970  97.6215 259.1351 0010110 134.0585 226.1492 15.36198952159790
LEMUR-2-MANO            
1 57390U 23100E   26116.32928694  .00371430  00000+0  19477-2 0  9996
2 57390  99.4435 155.4001 0013706 172.5851 187.5615 15.79650256153954
LEMUR-2-DEVERILL-M-T    
1 57391U 23100F   26116.78834417  .00031219  00000+0  85494-3 0  9997
2 57391  99.4524 140.8206 0006793 199.9555 160.1418 15.37266676153345
LEMUR-2-BASS            
1 58259U 23174D   26116.75770479  .00019852  00000+0  47570-3 0  9998
2 58259  97.3845 200.8215 0006486   6.7594 353.3739 15.41432755137438
LEMUR-2-JK0903EM1407    
1 58336U 23174CJ  26116.76672968  .00029981  00000+0  55191-3 0  9991
2 58336  97.3894 205.9108 0003701 291.3458  68.7398 15.49128009137769
LEMUR-2-MJR092620       
1 58340U 23174CN  26116.82900557  .00011866  00000+0  26824-3 0  9995
2 58340  97.3962 205.9884 0005115 309.4766  50.6029 15.43313292137726
LEMUR-2-NIMBUS2000      
1 58899U 24022A   26116.84853503  .00017158  00000+0  45472-3 0  9997
2 58899  97.4174 326.2551 0007618 307.8414  52.2141 15.38379905124378
LEMUR-2-VALHALLA        
1 58900U 24022B   26116.57517731  .00018927  00000+0  50543-3 0  9990
2 58900  97.4172 325.9929 0008079 303.1962  56.8507 15.38120098124332
LEMUR-2-OBA-NI-JESU     
1 58902U 24022D   26116.87209641  .00183151  00000+0  10577-2 0  9997
2 58902  97.3948 337.8138 0003612 208.4051 151.7019 15.78116518125163
LEMUR-2-CAEL            
1 58903U 24022E   26116.56156697  .00019147  00000+0  49206-3 0  9991
2 58903  97.4157 326.8288 0006300 283.1547  76.8996 15.39312327124396
LEMUR-2-JOHNNYTRUONG    
1 59146U 24043BA  26116.40059413  .00043681  00000+0  61056-3 0  9992
2 59146  97.5329 265.0669 0003774  19.9056 340.2345 15.56720267119976
LEMUR-2-TOMATOKECHUP    
1 60471U 24149D   26116.95014118  .00011866  00000+0  35212-3 0  9990
2 60471  97.3800 198.9095 0003065  81.6628 278.4962 15.34957437 94305
LEMUR-2-STELLA          
1 60533U 24149BT  26116.76644934  .00015020  00000+0  91030-3 0  9999
2 60533  97.6737 199.0449 0001538 132.1672 227.9688 15.10667788 92735
LEMUR-2-MARHISYAM       
1 60536U 24149BW  26116.79525080  .00011943  00000+0  73500-3 0  9997
2 60536  97.6872 199.4682 0000518 306.4327  53.6854 15.10167858 92722
LEMUR-2-AHMED-ASRAR     
1 60576U 24149DN  26116.81077881  .00012470  00000+0  73896-3 0  9999
2 60576  97.6996 201.3842 0003115 147.9666 212.1754 15.11526896 92806
LEMUR-2-LLOYD           
1 60577U 24149DP  26116.90713987  .00011883  00000+0  77095-3 0  9996
2 60577  97.6746 198.0503 0002749 338.9369  21.1745 15.08229399 92666
LEMUR-2-SQUIRRELCOMM    
1 60578U 24149DQ  26116.72452814  .00007251  00000+0  49435-3 0  9997
2 60578  97.6704 197.8231 0004950 212.6552 147.4369 15.06534285 92658
LEMUR-2-SIERRINI        
1 60579U 24149DR  26116.80792038  .00011792  00000+0  73193-3 0  9995
2 60579  97.6839 199.2203 0004619  12.6957 347.4387 15.09851000 92700
LEMUR-2-WILSON          
1 62694U 25009CP  26116.89430803  .00003006  00000+0  28055-3 0  9995
2 62694  97.7027 196.2669 0003157 178.7719 181.3510 14.94934155 69690
LEMUR-2-STAR-FOX        
1 62696U 25009CR  26116.46588515  .00008585  00000+0  66382-3 0  9996
2 62696  97.6923 198.5042 0001292  89.1450 270.9923 15.01738099 69793
LEMUR-2-ARIANNA         
1 62699U 25009CU  26116.79581444  .00010133  00000+0  78437-3 0  9995
2 62699  97.6845 198.6492 0000981  51.9648 308.1665 15.01651157 69841
LEMUR-2-ALISIA          
1 62706U 25009DB  26116.91744500  .00009708  00000+0  74593-3 0  9997
2 62706  97.6918 199.4624 0003103  42.9758 317.1709 15.01942463 92464
LEMUR-2-ROUNDTRIPPER    
1 62711U 25009DG  26116.77659221  .00011870  00000+0  88667-3 0  9992
2 62711  97.7239 199.5657 0002940 316.8959  43.2036 15.02960073 69909
LEMUR-2-MYNAMEISJEFF    
1 62712U 25009DH  26116.77505090  .00011360  00000+0  84898-3 0  9993
2 62712  97.7289 199.9139 0002123  16.1139 344.0154 15.02955729 69902
LEMUR-2-LEIA-PHILIP     
1 63246U 25052AN  26116.60967012  .00002568  00000+0  22719-3 0  9996
2 63246  97.6897   9.4200 0005146  52.2280 307.9407 14.97169158 60950
LEMUR-2-LIA-MARTIN      
1 63248U 25052AQ  26116.69273488  .00005994  00000+0  52123-3 0  9992
2 63248  97.6942   9.9120 0003525  23.5554 336.5829 14.97329649 60974
LEMUR-2-DELOITTE-1      
1 63259U 25052BB  26116.66376964  .00005191  00000+0  45333-3 0  9998
2 63259  97.6989  10.2071 0000899  60.3882 299.7430 14.97227800 60986
LEMUR-2-EMERSONROSE     
1 63261U 25052BD  26116.68974337  .00004662  00000+0  39270-3 0  9996
2 63261  97.6946  10.6878 0000815 199.8116 160.3075 14.98690347 61022
LEMUR-2-MARACHE-FRAN    
1 63262U 25052BE  26116.69622872  .00007119  00000+0  58427-3 0  9997
2 63262  97.6927  10.9387 0002851 185.9495 174.1695 14.99510242 61047
LEMUR-2-THEFALCONER     
1 63264U 25052BG  26116.68303976  .00004488  00000+0  39472-3 0  9994
2 63264  97.6915   9.9014 0002328 136.6284 223.5121 14.97022027 60981
LEMUR-2-UNTITLED-SC     
1 63351U 25061A   26116.84323378  .00003900  00000+0  22294-3 0  9999
2 63351  97.5607  92.6052 0020842  82.9474 277.4127 15.13098704 59820
LEMUR-2-ESPERANZA       
1 63352U 25061B   26116.88960602  .00004498  00000+0  25598-3 0  9994
2 63352  97.5612  92.7328 0020346  82.2369 278.1171 15.13186313 59831
LEMUR-2-KREMPEL-BRO2    
1 63353U 25061C   26116.93115774  .00004634  00000+0  26038-3 0  9995
2 63353  97.5661  93.2421 0021277  75.3173 285.0415 15.13612718 59859
LEMUR-2-THERMORAPTOR    
1 63354U 25061D   26116.84963480  .00004327  00000+0  24296-3 0  9994
2 63354  97.5667  93.2273 0021035  74.6965 285.6590 15.13680999 59849
LEMUR-2-NEUROSPICY      
1 63355U 25061E   26116.89125214  .00004927  00000+0  27549-3 0  9995
2 63355  97.5592  92.9349 0018825  77.9964 282.3376 15.13795194 59856
LEMUR-2-TILLINFINITY    
1 63356U 25061F   26116.88035133  .00005388  00000+0  29590-3 0  9995
2 63356  97.5579  93.1785 0019930  67.2209 293.1125 15.14379022 59874
LEMUR-2-KREMPEL-BRO1    
1 63357U 25061G   26116.84726733  .00004119  00000+0  22819-3 0  9993
2 63357  97.5579  93.0758 0020651  68.3682 291.9747 15.14191194 59860
LEMUR-2-LANGER2SPACE    
1 63358U 25061H   26116.86354610  .00004585  00000+0  25595-3 0  9998
2 63358  97.5586  92.9267 0018719  76.5617 283.7699 15.13890871 59854
LEMUR-2-BALTO           
1 63395U 25052BH  26116.68122755  .00006210  00000+0  50988-3 0  9993
2 63395  97.6941  10.9218 0001282 178.6081 181.5146 14.99549904 61040
LEMUR-2-KRISH           
1 64561U 25135AK  26116.83789977  .00005568  00000+0  50507-3 0  9995
2 64561  97.7669 232.1094 0001055 106.9046 253.2291 14.95714420 46243
LEMUR-2-HUBBLE-4        
1 64565U 25135AP  26116.27196051  .00001924  00000+0  19026-3 0  9995
2 64565  97.7635 230.8213 0003997 101.4457 258.7212 14.93049161 46122
LEMUR-2-SEJONG-2        
1 64586U 25135BL  26116.88555984  .00004883  00000+0  43742-3 0  9998
2 64586  97.7624 232.2959 0005762 128.0246 232.1496 14.96255113 46274
LEMUR-2-HUBBLE-5        
1 64840U 25135BT  26116.85581145  .00001909  00000+0  18448-3 0  9997
2 64840  97.7653 231.9586 0006623 139.8733 220.2977 14.93973087 46242
LEMUR-2-KARENDARRELL    
1 64841U 25135BU  26116.81067145  .00009738  00000+0  79916-3 0  9998
2 64841  97.7671 233.1344 0009301  47.8739 312.3273 14.99389014 46316
LEMUR-2-LUCILLE-ROSE    
1 65403U 25135BV  26116.85236897  .00009316  00000+0  76465-3 0  9997
2 65403  97.7646 233.1646 0010989  96.3294 263.9181 14.99384492 40944
LEMUR-2-AFFIE-WAUWIE    
1 66295U 25248C   26116.48131258  .00025354  00000+0  99328-3 0  9999
2 66295  45.3992  34.7594 0008873 152.4312 207.7049 15.25390686 26695
LEMUR-2-DEANANDMAEVE    
1 66678U 25276N   26116.74805208  .00009150  00000+0  43925-3 0  9995
2 66678  97.4228 191.0995 0006381 165.5738 194.5680 15.19066437 22609
LEMUR-2-STAS-GORBUK     
1 66686U 25276W   26116.75226531  .00007608  00000+0  36858-3 0  9994
2 66686  97.4265 191.1589 0005965 159.8397 200.3074 15.18808718 22601
